LIME                    
1 62648U 25009AR  26068.73906781  .00013254  00000+0  47723-3 0  9995
2 62648  97.3985 151.4831 0001635  35.9029 324.2320 15.28703313 63766
STARLINK-36101          
1 66867U 25281V   26068.18094528  .00035260  00000+0  12848-2 0  9990
2 66867  42.9984 346.6993 0000609 308.8526  51.2271 15.27578133 16094
